[Satellite]
VERSION=1.1
NAME=CZ-6A DEB
NICKNAME=CZ-6A DEB
TLE1=1 54459U 22151GK  22342.00239041  .00000872  00000+0  19549-3 0  9997
TLE2=2 54459  98.8230 348.3712 0169210 202.1055 157.2782 14.51049595  3515
STATUS=0
